{"type":"FeatureCollection","crs":{"type":"name","properties":{"name":"EPSG:4326"}},"features":[{"type":"Feature","id":1,"geometry":{"type":"Point","coordinates":[-84.7675740003491,43.5981060001629]},"properties":{"School":"Central Michigan University","City":"Mount Pleasant","State":"MI","Control":"Public","Kind":"Doctoral university with high research activity (R2)","UGfall2021":11417,"Gfall2021":4007,"Founded":1892,"column8":null,"column9":null,"column10":null,"column11":null,"column12":null,"column13":null,"column14":null,"column15":null,"column16":null,"column17":null,"column18":null,"column19":null,"column20":null,"column21":null,"column22":null,"column23":null,"column24":null,"column25":null,"column26":null,"FID":1}},{"type":"Feature","id":2,"geometry":{"type":"Point","coordinates":[-83.6145427002117,42.239806100064]},"properties":{"School":"Eastern Michigan University","City":"Ypsilanti","State":"MI","Control":"Public","Kind":"Doctoral university with high research activity (R2)","UGfall2021":12730,"Gfall2021":2610,"Founded":1849,"column8":null,"column9":null,"column10":null,"column11":null,"column12":null,"column13":null,"column14":null,"column15":null,"column16":null,"column17":null,"column18":null,"column19":null,"column20":null,"column21":null,"column22":null,"column23":null,"column24":null,"column25":null,"column26":null,"FID":2}},{"type":"Feature","id":3,"geometry":{"type":"Point","coordinates":[-84.4836980000655,42.7468759998723]},"properties":{"School":"Michigan State University","City":"East Lansing","State":"MI","Control":"Public","Kind":"Doctoral university with very high research activity (R1)","UGfall2021":38574,"Gfall2021":11085,"Founded":1855,"column8":null,"column9":null,"column10":null,"column11":null,"column12":null,"column13":null,"column14":null,"column15":null,"column16":null,"column17":null,"column18":null,"column19":null,"column20":null,"column21":null,"column22":null,"column23":null,"column24":null,"column25":null,"column26":null,"FID":3}},{"type":"Feature","id":4,"geometry":{"type":"Point","coordinates":[-88.5644622001426,47.1212325998595]},"properties":{"School":"Michigan Technological University","City":"Houghton","State":"MI","Control":"Public","Kind":"Doctoral university with high research activity (R2)","UGfall2021":5777,"Gfall2021":1231,"Founded":1885,"column8":null,"column9":null,"column10":null,"column11":null,"column12":null,"column13":null,"column14":null,"column15":null,"column16":null,"column17":null,"column18":null,"column19":null,"column20":null,"column21":null,"column22":null,"column23":null,"column24":null,"column25":null,"column26":null,"FID":4}},{"type":"Feature","id":5,"geometry":{"type":"Point","coordinates":[-83.1325608997413,42.6523975000108]},"properties":{"School":"Oakland University","City":"Rochester Hills","State":"MI","Control":"Public","Kind":"Doctoral university with high research activity (R2)","UGfall2021":13771,"Gfall2021":3399,"Founded":1957,"column8":null,"column9":null,"column10":null,"column11":null,"column12":null,"column13":null,"column14":null,"column15":null,"column16":null,"column17":null,"column18":null,"column19":null,"column20":null,"column21":null,"column22":null,"column23":null,"column24":null,"column25":null,"column26":null,"FID":5}},{"type":"Feature","id":6,"geometry":{"type":"Point","coordinates":[-83.7484778996431,42.281418899674]},"properties":{"School":"University of Michigan","City":"Ann Arbor","State":"MI","Control":"Public","Kind":"Doctoral university with very high research activity (R1)","UGfall2021":32282,"Gfall2021":17996,"Founded":1817,"column8":null,"column9":null,"column10":null,"column11":null,"column12":null,"column13":null,"column14":null,"column15":null,"column16":null,"column17":null,"column18":null,"column19":null,"column20":null,"column21":null,"column22":null,"column23":null,"column24":null,"column25":null,"column26":null,"FID":6}},{"type":"Feature","id":7,"geometry":{"type":"Point","coordinates":[-83.047836500332,42.3329407003098]},"properties":{"School":"Wayne State University","City":"Detroit","State":"MI","Control":"Public","Kind":"Doctoral university with very high research activity (R1)","UGfall2021":16839,"Gfall2021":8080,"Founded":1868,"column8":null,"column9":null,"column10":null,"column11":null,"column12":null,"column13":null,"column14":null,"column15":null,"column16":null,"column17":null,"column18":null,"column19":null,"column20":null,"column21":null,"column22":null,"column23":null,"column24":null,"column25":null,"column26":null,"FID":7}},{"type":"Feature","id":8,"geometry":{"type":"Point","coordinates":[-85.5846819996025,42.2897769999235]},"properties":{"School":"Western Michigan University","City":"Kalamazoo","State":"MI","Control":"Public","Kind":"Doctoral university with high research activity (R2)","UGfall2021":14587,"Gfall2021":3679,"Founded":1903,"column8":null,"column9":null,"column10":null,"column11":null,"column12":null,"column13":null,"column14":null,"column15":null,"column16":null,"column17":null,"column18":null,"column19":null,"column20":null,"column21":null,"column22":null,"column23":null,"column24":null,"column25":null,"column26":null,"FID":8}}]}